start=new Date('2023-05-23T00:00:00.000Z').valueOf();
sats=[{"NORAD_CAT_ID":"54803","INCLINATION":"53.2159","TLE_LINE1":"1 54803U 22175AX  23142.73844504  .00021651  00000-0  13734-2 0  9999","TLE_LINE2":"2 54803  53.2159 311.5018 0001047  65.0289 295.0812 15.08862658 25641","APOAPSIS":"540.400","DECAY_DATE":null,"ELEMENT_SET_NO":"999","LAUNCH_DATE":"2022-12-17","EPOCH":"2023-05-22T17:43:21.651456","FILE":"3914964","REV_AT_EPOCH":"2564","TIME_SYSTEM":"UTC","BSTAR":"0.00137340000000","SEMIMAJOR_AXIS":"6917.811","EPHEMERIS_TYPE":"0","RA_OF_ASC_NODE":"311.5018","OBJECT_ID":"2022-175AX","PERIOD":"95.436","COUNTRY_CODE":"US","MEAN_MOTION_DOT":"0.00021651","OBJECT_TYPE":"PAYLOAD","CLASSIFICATION_TYPE":"U","MEAN_ELEMENT_THEORY":"SGP4","REF_FRAME":"TEME","RCS_SIZE":"LARGE","MEAN_ANOMALY":"295.0812","MEAN_MOTION_DDOT":"0.0000000000000","OBJECT_NAME":"STARLINK-5430","GP_ID":"232361601","SITE":"AFETR","ARG_OF_PERICENTER":"65.0289","PERIAPSIS":"538.952","MEAN_MOTION":"15.08862658","CENTER_NAME":"EARTH","ECCENTRICITY":"0.00010470"},{"REF_FRAME":"TEME","CLASSIFICATION_TYPE":"U","OBJECT_TYPE":"PAYLOAD","COUNTRY_CODE":"US","MEAN_MOTION_DOT":"0.00007877","MEAN_ELEMENT_THEORY":"SGP4","OBJECT_ID":"2022-175AY","RA_OF_ASC_NODE":"296.8275","PERIOD":"95.437","SEMIMAJOR_AXIS":"6917.862","EPHEMERIS_TYPE":"0","ECCENTRICITY":"0.00010860","MEAN_MOTION":"15.08845950","PERIAPSIS":"538.976","CENTER_NAME":"EARTH","SITE":"AFETR","ARG_OF_PERICENTER":"110.7090","OBJECT_NAME":"STARLINK-5422","MEAN_MOTION_DDOT":"0.0000000000000","MEAN_ANOMALY":"249.4018","RCS_SIZE":"LARGE","GP_ID":"232360864","ELEMENT_SET_NO":"999","LAUNCH_DATE":"2022-12-17","DECAY_DATE":null,"APOAPSIS":"540.478","INCLINATION":"53.2178","NORAD_CAT_ID":"54804","TLE_LINE2":"2 54804  53.2178 296.8275 0001086 110.7090 249.4018 15.08845950 25843","TLE_LINE1":"1 54804U 22175AY  23142.66806223  .00007877  00000-0  51234-3 0  9990","BSTAR":"0.00051234000000","TIME_SYSTEM":"UTC","FILE":"3914964","REV_AT_EPOCH":"2584","EPOCH":"2023-05-22T16:02:00.576672"},{"TLE_LINE1":"1 54805U 22175AZ  23142.67174617 -.00001276  00000-0 -62122-4 0  9995","TLE_LINE2":"2 54805  53.2169 296.8474 0000914  94.8170 265.2927 15.08846129 25849","INCLINATION":"53.2169","NORAD_CAT_ID":"54805","LAUNCH_DATE":"2022-12-17","ELEMENT_SET_NO":"999","DECAY_DATE":null,"APOAPSIS":"540.359","REV_AT_EPOCH":"2584","FILE":"3914964","EPOCH":"2023-05-22T16:07:18.869088","BSTAR":"-0.00006212200000","TIME_SYSTEM":"UTC","PERIOD":"95.437","RA_OF_ASC_NODE":"296.8474","OBJECT_ID":"2022-175AZ","EPHEMERIS_TYPE":"0","SEMIMAJOR_AXIS":"6917.862","REF_FRAME":"TEME","MEAN_ELEMENT_THEORY":"SGP4","OBJECT_TYPE":"PAYLOAD","CLASSIFICATION_TYPE":"U","COUNTRY_CODE":"US","MEAN_MOTION_DOT":"-0.00001276","ARG_OF_PERICENTER":"94.8170","SITE":"AFETR","GP_ID":"232361114","MEAN_MOTION_DDOT":"0.0000000000000","OBJECT_NAME":"STARLINK-5417","MEAN_ANOMALY":"265.2927","RCS_SIZE":"LARGE","ECCENTRICITY":"0.00009140","CENTER_NAME":"EARTH","MEAN_MOTION":"15.08846129","PERIAPSIS":"539.094"},{"MEAN_ELEMENT_THEORY":"SGP4","CLASSIFICATION_TYPE":"U","OBJECT_TYPE":"PAYLOAD","COUNTRY_CODE":"US","MEAN_MOTION_DOT":"0.00000014","REF_FRAME":"TEME","EPHEMERIS_TYPE":"0","SEMIMAJOR_AXIS":"6917.845","PERIOD":"95.437","OBJECT_ID":"2022-175BA","RA_OF_ASC_NODE":"296.4832","CENTER_NAME":"EARTH","MEAN_MOTION":"15.08851477","PERIAPSIS":"539.105","ECCENTRICITY":"0.00008750","GP_ID":"232361365","MEAN_MOTION_DDOT":"0.0000000000000","OBJECT_NAME":"STARLINK-5412","MEAN_ANOMALY":"263.1709","RCS_SIZE":"LARGE","ARG_OF_PERICENTER":"96.9382","SITE":"AFETR","DECAY_DATE":null,"APOAPSIS":"540.316","LAUNCH_DATE":"2022-12-17","ELEMENT_SET_NO":"999","TLE_LINE2":"2 54806  53.2169 296.4832 0000875  96.9382 263.1709 15.08851477 25856","TLE_LINE1":"1 54806U 22175BA  23142.72692480  .00000014  00000-0  18924-4 0  9993","INCLINATION":"53.2169","NORAD_CAT_ID":"54806","BSTAR":"0.00001892400000","TIME_SYSTEM":"UTC","EPOCH":"2023-05-22T17:26:46.302720","REV_AT_EPOCH":"2585","FILE":"3914964"},{"REF_FRAME":"TEME","COUNTRY_CODE":"US","MEAN_MOTION_DOT":"-0.00000704","CLASSIFICATION_TYPE":"U","OBJECT_TYPE":"PAYLOAD","MEAN_ELEMENT_THEORY":"SGP4","OBJECT_ID":"2022-175BB","RA_OF_ASC_NODE":"296.5050","PERIOD":"95.437","SEMIMAJOR_AXIS":"6917.854","EPHEMERIS_TYPE":"0","ECCENTRICITY":"0.00008500","PERIAPSIS":"539.131","MEAN_MOTION":"15.08848475","CENTER_NAME":"EARTH","SITE":"AFETR","ARG_OF_PERICENTER":"101.7528","MEAN_ANOMALY":"258.3559","RCS_SIZE":"LARGE","MEAN_MOTION_DDOT":"0.0000000000000","OBJECT_NAME":"STARLINK-5410","GP_ID":"232362101","ELEMENT_SET_NO":"999","LAUNCH_DATE":"2022-12-17","APOAPSIS":"540.308","DECAY_DATE":null,"NORAD_CAT_ID":"54807","INCLINATION":"53.2168","TLE_LINE1":"1 54807U 22175BB  23142.73061261 -.00000704  00000-0 -26142-4 0  9991","TLE_LINE2":"2 54807  53.2168 296.5050 0000850 101.7528 258.3559 15.08848475 25852","TIME_SYSTEM":"UTC","BSTAR":"-0.00002614200000","FILE":"3914964","REV_AT_EPOCH":"2585","EPOCH":"2023-05-22T17:32:04.929504"},{"NORAD_CAT_ID":"54808","INCLINATION":"53.2171","TLE_LINE2":"2 54808  53.2171 282.4779 0001181  77.5002 282.6122 15.08853805 26045","TLE_LINE1":"1 54808U 22175BC  23142.64285999 -.00000227  00000-0  37957-5 0  9994","ELEMENT_SET_NO":"999","LAUNCH_DATE":"2022-12-17","APOAPSIS":"540.520","DECAY_DATE":null,"FILE":"3914964","REV_AT_EPOCH":"2604","EPOCH":"2023-05-22T15:25:43.103136","TIME_SYSTEM":"UTC","BSTAR":"0.00000379570000","OBJECT_ID":"2022-175BC","RA_OF_ASC_NODE":"282.4779","PERIOD":"95.437","SEMIMAJOR_AXIS":"6917.838","EPHEMERIS_TYPE":"0","REF_FRAME":"TEME","COUNTRY_CODE":"US","MEAN_MOTION_DOT":"-0.00000227","OBJECT_TYPE":"PAYLOAD","CLASSIFICATION_TYPE":"U","MEAN_ELEMENT_THEORY":"SGP4","SITE":"AFETR","ARG_OF_PERICENTER":"77.5002","MEAN_ANOMALY":"282.6122","RCS_SIZE":"LARGE","MEAN_MOTION_DDOT":"0.0000000000000","OBJECT_NAME":"STARLINK-5413","GP_ID":"232360365","ECCENTRICITY":"0.00011810","PERIAPSIS":"538.886","MEAN_MOTION":"15.08853805","CENTER_NAME":"EARTH"},{"ARG_OF_PERICENTER":"96.8631","SITE":"AFETR","GP_ID":"232360615","OBJECT_NAME":"STARLINK-5414","MEAN_MOTION_DDOT":"0.0000000000000","RCS_SIZE":"LARGE","MEAN_ANOMALY":"263.2464","ECCENTRICITY":"0.00009020","CENTER_NAME":"EARTH","MEAN_MOTION":"15.08852654","PERIAPSIS":"539.083","PERIOD":"95.437","OBJECT_ID":"2022-175BD","RA_OF_ASC_NODE":"296.4582","EPHEMERIS_TYPE":"0","SEMIMAJOR_AXIS":"6917.842","REF_FRAME":"TEME","MEAN_ELEMENT_THEORY":"SGP4","CLASSIFICATION_TYPE":"U","OBJECT_TYPE":"PAYLOAD","MEAN_MOTION_DOT":"0.00006321","COUNTRY_CODE":"US","REV_AT_EPOCH":"2585","FILE":"3914964","EPOCH":"2023-05-22T17:21:28.374048","BSTAR":"0.00041472000000","TIME_SYSTEM":"UTC","TLE_LINE1":"1 54809U 22175BD  23142.72324507  .00006321  00000-0  41472-3 0  9998","TLE_LINE2":"2 54809  53.2168 296.4582 0000902  96.8631 263.2464 15.08852654 25854","INCLINATION":"53.2168","NORAD_CAT_ID":"54809","LAUNCH_DATE":"2022-12-17","ELEMENT_SET_NO":"999","DECAY_DATE":null,"APOAPSIS":"540.331"},{"DECAY_DATE":null,"APOAPSIS":"540.397","ELEMENT_SET_NO":"999","LAUNCH_DATE":"2022-12-17","INCLINATION":"53.2175","NORAD_CAT_ID":"54810","TLE_LINE2":"2 54810  53.2175 292.0858 0000979  74.7201 285.3899 15.08848367 25914","TLE_LINE1":"1 54810U 22175BE  23142.71184791  .00000023  00000-0  19546-4 0  9999","BSTAR":"0.00001954600000","TIME_SYSTEM":"UTC","EPOCH":"2023-05-22T17:05:03.659424","FILE":"3914964","REV_AT_EPOCH":"2591","OBJECT_TYPE":"PAYLOAD","CLASSIFICATION_TYPE":"U","MEAN_MOTION_DOT":"0.00000023","COUNTRY_CODE":"US","MEAN_ELEMENT_THEORY":"SGP4","REF_FRAME":"TEME","SEMIMAJOR_AXIS":"6917.855","EPHEMERIS_TYPE":"0","RA_OF_ASC_NODE":"292.0858","OBJECT_ID":"2022-175BE","PERIOD":"95.437","MEAN_MOTION":"15.08848367","PERIAPSIS":"539.043","CENTER_NAME":"EARTH","ECCENTRICITY":"0.00009790","MEAN_MOTION_DDOT":"0.0000000000000","OBJECT_NAME":"STARLINK-5408","MEAN_ANOMALY":"285.3899","RCS_SIZE":"LARGE","GP_ID":"232361865","SITE":"AFETR","ARG_OF_PERICENTER":"74.7201"},{"BSTAR":"0.00120910000000","TIME_SYSTEM":"UTC","EPOCH":"2023-05-22T19:26:42.298656","REV_AT_EPOCH":"2593","FILE":"3914964","DECAY_DATE":null,"APOAPSIS":"540.305","LAUNCH_DATE":"2022-12-17","ELEMENT_SET_NO":"999","TLE_LINE2":"2 54811  53.2167 291.2766 0000922  98.6834 261.4262 15.08865555 25939","TLE_LINE1":"1 54811U 22175BF  23142.81021179  .00019021  00000-0  12091-2 0  9995","INCLINATION":"53.2167","NORAD_CAT_ID":"54811","CENTER_NAME":"EARTH","MEAN_MOTION":"15.08865555","PERIAPSIS":"539.029","ECCENTRICITY":"0.00009220","GP_ID":"232361602","MEAN_MOTION_DDOT":"0.0000000000000","OBJECT_NAME":"STARLINK-5424","MEAN_ANOMALY":"261.4262","RCS_SIZE":"LARGE","ARG_OF_PERICENTER":"98.6834","SITE":"AFETR","MEAN_ELEMENT_THEORY":"SGP4","CLASSIFICATION_TYPE":"U","OBJECT_TYPE":"PAYLOAD","MEAN_MOTION_DOT":"0.00019021","COUNTRY_CODE":"US","REF_FRAME":"TEME","EPHEMERIS_TYPE":"0","SEMIMAJOR_AXIS":"6917.802","PERIOD":"95.436","RA_OF_ASC_NODE":"291.2766","OBJECT_ID":"2022-175BF"},{"FILE":"3914964","REV_AT_EPOCH":"2324","EPOCH":"2023-05-22T20:50:41.202816","BSTAR":"0.00075728000000","TIME_SYSTEM":"UTC","INCLINATION":"43.0036","NORAD_CAT_ID":"54820","TLE_LINE2":"2 54820  43.0036 285.8999 0001709 267.4489  92.6157 15.02550152 23241","TLE_LINE1":"1 54820U 22177A   23142.86853244  .00010044  00000-0  75728-3 0  9991","ELEMENT_SET_NO":"999","LAUNCH_DATE":"2022-12-28","DECAY_DATE":null,"APOAPSIS":"560.224","SITE":"AFETR","ARG_OF_PERICENTER":"267.4489","OBJECT_NAME":"STARLINK-5382","MEAN_MOTION_DDOT":"0.0000000000000","MEAN_ANOMALY":"92.6157","RCS_SIZE":"LARGE","GP_ID":"232361366","ECCENTRICITY":"0.00017090","MEAN_MOTION":"15.02550152","PERIAPSIS":"557.852","CENTER_NAME":"EARTH","OBJECT_ID":"2022-177A","RA_OF_ASC_NODE":"285.8999","PERIOD":"95.837","SEMIMAJOR_AXIS":"6937.173","EPHEMERIS_TYPE":"0","REF_FRAME":"TEME","OBJECT_TYPE":"PAYLOAD","CLASSIFICATION_TYPE":"U","MEAN_MOTION_DOT":"0.00010044","COUNTRY_CODE":"US","MEAN_ELEMENT_THEORY":"SGP4"}];
